$$SOE
2460154.500000000, A.D. 2023-Jul-29 00:00:00.0000, -1.966569820792663E+08, -2.960234303657587E+08, 7.543152950112924E+06,
2460161.500000000, A.D. 2023-Aug-05 00:00:00.0000, -1.874654176772966E+08, -3.029940693359495E+08, 6.005738053959250E+06,
2460168.500000000, A.D. 2023-Aug-12 00:00:00.0000, -1.780727973762533E+08, -3.096397003734337E+08, 4.461880252137348E+06,
2460175.500000000, A.D. 2023-Aug-19 00:00:00.0000, -1.684905932719761E+08, -3.159556205375781E+08, 2.913270777279377E+06,
2460182.500000000, A.D. 2023-Aug-26 00:00:00.0000, -1.587303085390758E+08, -3.219375387170488E+08, 1.361581307129279E+06,
2460189.500000000, A.D. 2023-Sep-02 00:00:00.0000, -1.488034639248002E+08, -3.275815683717539E+08, -1.915373002114147E+05,
2460196.500000000, A.D. 2023-Sep-09 00:00:00.0000, -1.387215849653592E+08, -3.328842201097318E+08, -1.744456175392762E+06,
2460203.500000000, A.D. 2023-Sep-16 00:00:00.0000, -1.284961897413641E+08, -3.378423942076700E+08, -3.295569536095858E+06,
2460210.500000000, A.D. 2023-Sep-23 00:00:00.0000, -1.181387767384142E+08, -3.424533728353262E+08, -4.843295734014899E+06,
2460217.500000000, A.D. 2023-Sep-30 00:00:00.0000, -1.076608131327495E+08, -3.467148108364945E+08, -6.386078126911387E+06,
2460224.500000000, A.D. 2023-Oct-07 00:00:00.0000, -9.707372583366184E+07, -3.506247256483375E+08, -7.922385609072864E+06,
2460231.500000000, A.D. 2023-Oct-14 00:00:00.0000, -8.638889421826017E+07, -3.541814897090411E+08, -9.450713171269730E+06,
2460238.500000000, A.D. 2023-Oct-21 00:00:00.0000, -7.561764130541044E+07, -3.573838237879784E+08, -1.096958266023593E+07,
2460245.500000000, A.D. 2023-Oct-28 00:00:00.0000, -6.477122476931292E+07, -3.602307890121826E+08, -1.247754342692931E+07,
2460252.500000000, A.D. 2023-Nov-04 00:00:00.0000, -5.386082901813840E+07, -3.627217783887942E+08, -1.397317281634130E+07,
2460259.500000000, A.D. 2023-Nov-11 00:00:00.0000, -4.289755813482305E+07, -3.648565084490125E+08, -1.545507656854190E+07,
2460266.500000000, A.D. 2023-Nov-18 00:00:00.0000, -3.189242943456251E+07, -3.666350111002175E+08, -1.692188916064416E+07,
2460273.500000000, A.D. 2023-Nov-25 00:00:00.0000, -2.085636753912599E+07, -3.680576256835320E+08, -1.837227409881075E+07,
2460280.500000000, A.D. 2023-Dec-02 00:00:00.0000, -9.800198912118765E+06, -3.691249912669999E+08, -1.980492416808619E+07,
2460287.500000000, A.D. 2023-Dec-09 00:00:00.0000, 1.265353249460276E+06, -3.698380392517211E+08, -2.121856165618655E+07,
2460294.500000000, A.D. 2023-Dec-16 00:00:00.0000, 1.232967408036080E+07, -3.701979862948629E+08, -2.261193858061738E+07,
2460301.500000000, A.D. 2023-Dec-23 00:00:00.0000, 2.338226244206809E+07, -3.702063268758011E+08, -2.398383689881164E+07,
2460308.500000000, A.D. 2023-Dec-30 00:00:00.0000, 3.441273533166433E+07, -3.698648244666995E+08, -2.533306849640253E+07,
2460315.500000000, A.D. 2024-Jan-06 00:00:00.0000, 4.541082955658835E+07, -3.691755036752495E+08, -2.665847498764542E+07,
2460322.500000000, A.D. 2024-Jan-13 00:00:00.0000, 5.636640387353542E+07, -3.681406451726996E+08, -2.795892777038026E+07,
2460329.500000000, A.D. 2024-Jan-20 00:00:00.0000, 6.726944283992702E+07, -3.667627803304572E+08, -2.923332819940314E+07,
2460336.500000000, A.D. 2024-Jan-27 00:00:00.0000, 7.811006037238616E+07, -3.650446849198545E+08, -3.048060764237140E+07,
2460343.500000000, A.D. 2024-Feb-03 00:00:00.0000, 8.887850260621120E+07, -3.629893728282758E+08, -3.169972745979176E+07,
2460350.500000000, A.D. 2024-Feb-10 00:00:00.0000, 9.956515035491075E+07, -3.606000900861773E+08, -3.288967896151716E+07,
2460357.500000000, A.D. 2024-Feb-17 00:00:00.0000, 1.101605213288989E+08, -3.578803091994783E+08, -3.404948335484363E+07,
2460364.500000000, A.D. 2024-Feb-24 00:00:00.0000, 1.206552721680710E+08, -3.548337237731152E+08, -3.517819168902494E+07,
2460371.500000000, A.D. 2024-Mar-02 00:00:00.0000, 1.310402003352588E+08, -3.514642434566028E+08, -3.627488480387969E+07,
2460378.500000000, A.D. 2024-Mar-09 00:00:00.0000, 1.413062460264402E+08, -3.477759892709640E+08, -3.733867330220146E+07,
2460385.500000000, A.D. 2024-Mar-16 00:00:00.0000, 1.514444945099380E+08, -3.437732891147423E+08, -3.836869756748603E+07,
2460392.500000000, A.D. 2024-Mar-23 00:00:00.0000, 1.614461788090245E+08, -3.394606723339911E+08, -3.936412772816454E+07,
2460399.500000000, A.D. 2024-Mar-30 00:00:00.0000, 1.713026805062470E+08, -3.348428633773758E+08, -4.032416336673886E+07,
2460406.500000000, A.D. 2024-Apr-06 00:00:00.0000, 1.810055289452179E+08, -3.299247778996565E+08, -4.124803327485500E+07,
2460413.500000000, A.D. 2024-Apr-13 00:00:00.0000, 1.905464023998560E+08, -3.247115204756266E+08, -4.213499551436278E+07,
2460420.500000000, A.D. 2024-Apr-20 00:00:00.0000, 1.999171302749096E+08, -3.192083812480941E+08, -4.298433748073123E+07,
2460427.500000000, A.D. 2024-Apr-27 00:00:00.0000, 2.091096948336622E+08, -3.134208320689198E+08, -4.379537587726857E+07,
2460434.500000000, A.D. 2024-May-04 00:00:00.0000, 2.181162325527267E+08, -3.073545228306972E+08, -4.456745666685142E+07,
2460441.500000000, A.D. 2024-May-11 00:00:00.0000, 2.269290353544873E+08, -3.010152780833588E+08, -4.529995503227213E+07,
2460448.500000000, A.D. 2024-May-18 00:00:00.0000, 2.355405518113463E+08, -2.944090939060701E+08, -4.599227535179918E+07,
2460455.500000000, A.D. 2024-May-25 00:00:00.0000, 2.439433883579206E+08, -2.875421350329876E+08, -4.664385119351314E+07,
2460462.500000000, A.D. 2024-Jun-01 00:00:00.0000, 2.521303105818412E+08, -2.804207322804827E+08, -4.725414533912675E+07,
2460469.500000000, A.D. 2024-Jun-08 00:00:00.0000, 2.600942448513283E+08, -2.730513802882082E+08, -4.782264986228390E+07,
2460476.500000000, A.D. 2024-Jun-15 00:00:00.0000, 2.678282806925258E+08, -2.654407350201932E+08, -4.834888625426675E+07,
2460483.500000000, A.D. 2024-Jun-22 00:00:00.0000, 2.753256729239704E+08, -2.575956098446565E+08, -4.883240540987386E+07,
2460490.500000000, A.D. 2024-Jun-29 00:00:00.0000, 2.825798414356776E+08, -2.495229720059438E+08, -4.927278742828211E+07,
2460497.500000000, A.D. 2024-Jul-06 00:00:00.0000, 2.895843712653264E+08, -2.412299419482864E+08, -4.966964167358999E+07,
2460504.500000000, A.D. 2024-Jul-13 00:00:00.0000, 2.963330149304975E+08, -2.327237926555695E+08, -5.002260704344289E+07,
2460511.500000000, A.D. 2024-Jul-20 00:00:00.0000, 3.028196950420237E+08, -2.240119478489175E+08, -5.033135217052931E+07,
2460518.500000000, A.D. 2024-Jul-27 00:00:00.0000, 3.090385065519696E+08, -2.151019799923723E+08, -5.059557557598718E+07,
2460525.500000000, A.D. 2024-Aug-03 00:00:00.0000, 3.149837189175817E+08, -2.060016084717507E+08, -5.081500583107050E+07,
2460532.500000000, A.D. 2024-Aug-10 00:00:00.0000, 3.206497783545823E+08, -1.967186979407208E+08, -5.098940174316731E+07,
2460539.500000000, A.D. 2024-Aug-17 00:00:00.0000, 3.260313102338555E+08, -1.872612568014638E+08, -5.111855256900380E+07,
2460546.500000000, A.D. 2024-Aug-24 00:00:00.0000, 3.311231216547245E+08, -1.776374358305467E+08, -5.120227825931736E+07,
2460553.500000000, A.D. 2024-Aug-31 00:00:00.0000, 3.359202043139808E+08, -1.678555269980787E+08, -5.124042975005663E+07,
2460560.500000000, A.D. 2024-Sep-07 00:00:00.0000, 3.404177380395407E+08, -1.579239623371851E+08, -5.123288932246467E+07,
2460567.500000000, A.D. 2024-Sep-14 00:00:00.0000, 3.446110950815401E+08, -1.478513118503233E+08, -5.117957095828997E+07,
2460574.500000000, A.D. 2024-Sep-21 00:00:00.0000, 3.484958431431376E+08, -1.376462800262971E+08, -5.108042047131763E+07,
2460581.500000000, A.D. 2024-Sep-28 00:00:00.0000, 3.520677466707470E+08, -1.273177041839923E+08, -5.093541563528205E+07,
2460588.500000000, A.D. 2024-Oct-05 00:00:00.0000, 3.553227700766498E+08, -1.168745546261244E+08, -5.074456664487327E+07,
2460595.500000000, A.D. 2024-Oct-12 00:00:00.0000, 3.582570825383458E+08, -1.063259336067819E+08, -5.050791663344985E+07,
2460602.500000000, A.D. 2024-Oct-19 00:00:00.0000, 3.608670626294979E+08, -9.568107336863378E+07, -5.022554210922883E+07,
2460609.500000000, A.D. 2024-Oct-26 00:00:00.0000, 3.631493027545449E+08, -8.494933403591143E+07, -4.989755337234773E+07,
2460616.500000000, A.D. 2024-Nov-02 00:00:00.0000, 3.651006136477669E+08, -7.414020149519382E+07, -4.952409494807326E+07,
2460623.500000000, A.D. 2024-Nov-09 00:00:00.0000, 3.667180290363629E+08, -6.326328522630832E+07, -4.910534604268579E+07,
2460630.500000000, A.D. 2024-Nov-16 00:00:00.0000, 3.679988104955813E+08, -5.232831606619475E+07, -4.864152102355890E+07,
2460637.500000000, A.D. 2024-Nov-23 00:00:00.0000, 3.689404525428206E+08, -4.134514393935266E+07, -4.813286993056841E+07,
2460644.500000000, A.D. 2024-Nov-30 00:00:00.0000, 3.695406881742612E+08, -3.032373558108221E+07, -4.757967903931574E+07,
2460651.500000000, A.D. 2024-Dec-07 00:00:00.0000, 3.697974952530760E+08, -1.927417181237100E+07, -4.698227147700597E+07,
2460658.500000000, A.D. 2024-Dec-14 00:00:00.0000, 3.697091030524945E+08, -8.206643114711983E+06, -4.634100772461927E+07,
2460665.500000000, A.D. 2024-Dec-21 00:00:00.0000, 3.692739966374351E+08, 2.868555281790132E+06, -4.565628589302588E+07,
2460672.500000000, A.D. 2024-Dec-28 00:00:00.0000, 3.684909210595292E+08, 1.394102585103108E+07, -4.492854219617330E+07,
2460679.500000000, A.D. 2025-Jan-04 00:00:00.0000, 3.673588879587813E+08, 2.500027116150269E+07, -4.415825166398687E+07,
2460686.500000000, A.D. 2025-Jan-11 00:00:00.0000, 3.658771827454884E+08, 3.603569788649902E+07, -4.334592879029989E+07,
2460693.500000000, A.D. 2025-Jan-18 00:00:00.0000, 3.640453714384572E+08, 4.703662153652963E+07, -4.249212810433026E+07,
2460700.500000000, A.D. 2025-Jan-25 00:00:00.0000, 3.618633073925470E+08, 5.799227146172388E+07, -4.159744472376776E+07,
2460707.500000000, A.D. 2025-Feb-01 00:00:00.0000, 3.593311380920684E+08, 6.889179611788355E+07, -4.066251490588849E+07,
2460714.500000000, A.D. 2025-Feb-08 00:00:00.0000, 3.564493120538261E+08, 7.972426864071853E+07, -3.968801659684393E+07,
$$EOE